{
    "week": 295,
    "satellites": [
        {
            "Name": "BEIDOU-2 G6 (C02)",
            "Line1": "1 38953U 12059A   24341.84393200 -.00000159  00000+0  00000+0 0  9992",
            "Line2": "2 38953   3.0000  79.0962 0007547 289.3765  95.5195  1.00270885 44462",
            "SatelliteNumber": "38953",
            "Classification": "U",
            "LaunchYear": "12",
            "LaunchNumber": "059",
            "PieceOfLaunch": "A",
            "EpochYear": "24",
            "EpochDay": 341.843932,
            "FirstDerivativeMeanMotion": -1.59e-06,
            "SecondDerivativeMeanMotion": "00000+0",
            "BSTAR": "00000+0",
            "SetNumber": "999",
            "Inclination": 3.0,
            "RAAN": 79.0962,
            "Eccentricity": 0.0007547,
            "ArgumentOfPerigee": 289.3765,
            "MeanAnomaly": 95.5195,
            "MeanMotion": 1.00270885,
            "RevolutionNumber": "4446"
        },
        {
            "Name": "BEIDOU-3S IGSO-1S (C31)",
            "Line1": "1 40549U 15019A   24341.85286979 -.00000178  00000+0  00000+0 0  9991",
            "Line2": "2 40549  50.2539 302.1459 0034954 198.9151 338.4056  1.00265586 35472",
            "SatelliteNumber": "40549",
            "Classification": "U",
            "LaunchYear": "15",
            "LaunchNumber": "019",
            "PieceOfLaunch": "A",
            "EpochYear": "24",
            "EpochDay": 341.85286979,
            "FirstDerivativeMeanMotion": -1.78e-06,
            "SecondDerivativeMeanMotion": "00000+0",
            "BSTAR": "00000+0",
            "SetNumber": "999",
            "Inclination": 50.2539,
            "RAAN": 302.1459,
            "Eccentricity": 0.0034954,
            "ArgumentOfPerigee": 198.9151,
            "MeanAnomaly": 338.4056,
            "MeanMotion": 1.00265586,
            "RevolutionNumber": "3547"
        },
        {
            "Name": "BEIDOU-3S M2S (C58)",
            "Line1": "1 40748U 15037A   24341.42560068 -.00000046  00000+0  00000+0 0  9993",
            "Line2": "2 40748  55.3492 321.1704 0012899 262.3414  97.5147  1.86229096 63737",
            "SatelliteNumber": "40748",
            "Classification": "U",
            "LaunchYear": "15",
            "LaunchNumber": "037",
            "PieceOfLaunch": "A",
            "EpochYear": "24",
            "EpochDay": 341.42560068,
            "FirstDerivativeMeanMotion": -4.6e-07,
            "SecondDerivativeMeanMotion": "00000+0",
            "BSTAR": "00000+0",
            "SetNumber": "999",
            "Inclination": 55.3492,
            "RAAN": 321.1704,
            "Eccentricity": 0.0012899,
            "ArgumentOfPerigee": 262.3414,
            "MeanAnomaly": 97.5147,
            "MeanMotion": 1.86229096,
            "RevolutionNumber": "6373"
        },
        {
            "Name": "BEIDOU-3S M1S (C57)",
            "Line1": "1 40749U 15037B   24341.16199237 -.00000046  00000+0  00000+0 0  9991",
            "Line2": "2 40749  55.3521 321.1660 0004425 323.8989  36.0736  1.86227458 63729",
            "SatelliteNumber": "40749",
            "Classification": "U",
            "LaunchYear": "15",
            "LaunchNumber": "037",
            "PieceOfLaunch": "B",
            "EpochYear": "24",
            "EpochDay": 341.16199237,
            "FirstDerivativeMeanMotion": -4.6e-07,
            "SecondDerivativeMeanMotion": "00000+0",
            "BSTAR": "00000+0",
            "SetNumber": "999",
            "Inclination": 55.3521,
            "RAAN": 321.166,
            "Eccentricity": 0.0004425,
            "ArgumentOfPerigee": 323.8989,
            "MeanAnomaly": 36.0736,
            "MeanMotion": 1.86227458,
            "RevolutionNumber": "6372"
        },
        {
            "Name": "BEIDOU-3S IGSO-2S (C56)",
            "Line1": "1 40938U 15053A   24340.76230038 -.00000131  00000+0  00000+0 0  9994",
            "Line2": "2 40938  50.0919 265.3998 0051626 189.0881 351.2683  1.00266562 33740",
            "SatelliteNumber": "40938",
            "Classification": "U",
            "LaunchYear": "15",
            "LaunchNumber": "053",
            "PieceOfLaunch": "A",
            "EpochYear": "24",
            "EpochDay": 340.76230038,
            "FirstDerivativeMeanMotion": -1.31e-06,
            "SecondDerivativeMeanMotion": "00000+0",
            "BSTAR": "00000+0",
            "SetNumber": "999",
            "Inclination": 50.0919,
            "RAAN": 265.3998,
            "Eccentricity": 0.0051626,
            "ArgumentOfPerigee": 189.0881,
            "MeanAnomaly": 351.2683,
            "MeanMotion": 1.00266562,
            "RevolutionNumber": "3374"
        },
        {
            "Name": "BEIDOU-2 IGSO-6 (C13)",
            "Line1": "1 41434U 16021A   24341.67848784 -.00000163  00000+0  00000+0 0  9991",
            "Line2": "2 41434  59.4318  43.6168 0055235 225.8160 147.5482  1.00281044 31881",
            "SatelliteNumber": "41434",
            "Classification": "U",
            "LaunchYear": "16",
            "LaunchNumber": "021",
            "PieceOfLaunch": "A",
            "EpochYear": "24",
            "EpochDay": 341.67848784,
            "FirstDerivativeMeanMotion": -1.63e-06,
            "SecondDerivativeMeanMotion": "00000+0",
            "BSTAR": "00000+0",
            "SetNumber": "999",
            "Inclination": 59.4318,
            "RAAN": 43.6168,
            "Eccentricity": 0.0055235,
            "ArgumentOfPerigee": 225.816,
            "MeanAnomaly": 147.5482,
            "MeanMotion": 1.00281044,
            "RevolutionNumber": "3188"
        },
        {
            "Name": "BEIDOU-2 G7 (C03)",
            "Line1": "1 41586U 16037A   24341.68767001 -.00000337  00000+0  00000+0 0  9992",
            "Line2": "2 41586   1.7922  67.3271 0007428 343.5774  23.1986  1.00271802  1301",
            "SatelliteNumber": "41586",
            "Classification": "U",
            "LaunchYear": "16",
            "LaunchNumber": "037",
            "PieceOfLaunch": "A",
            "EpochYear": "24",
            "EpochDay": 341.68767001,
            "FirstDerivativeMeanMotion": -3.37e-06,
            "SecondDerivativeMeanMotion": "00000+0",
            "BSTAR": "00000+0",
            "SetNumber": "999",
            "Inclination": 1.7922,
            "RAAN": 67.3271,
            "Eccentricity": 0.0007428,
            "ArgumentOfPerigee": 343.5774,
            "MeanAnomaly": 23.1986,
            "MeanMotion": 1.00271802,
            "RevolutionNumber": "130"
        },
        {
            "Name": "BEIDOU-3 M1 (C19)",
            "Line1": "1 43001U 17069A   24339.62652125 -.00000003  00000+0  00000+0 0  9993",
            "Line2": "2 43001  56.2039  81.5933 0008633 296.2664  63.6469  1.86231141 48181",
            "SatelliteNumber": "43001",
            "Classification": "U",
            "LaunchYear": "17",
            "LaunchNumber": "069",
            "PieceOfLaunch": "A",
            "EpochYear": "24",
            "EpochDay": 339.62652125,
            "FirstDerivativeMeanMotion": -3e-08,
            "SecondDerivativeMeanMotion": "00000+0",
            "BSTAR": "00000+0",
            "SetNumber": "999",
            "Inclination": 56.2039,
            "RAAN": 81.5933,
            "Eccentricity": 0.0008633,
            "ArgumentOfPerigee": 296.2664,
            "MeanAnomaly": 63.6469,
            "MeanMotion": 1.86231141,
            "RevolutionNumber": "4818"
        },
        {
            "Name": "BEIDOU-3 M2 (C20)",
            "Line1": "1 43002U 17069B   24341.71195712  .00000000  00000+0  00000+0 0  9997",
            "Line2": "2 43002  56.2052  81.5594 0006065 324.7343  35.2335  1.86230815 48216",
            "SatelliteNumber": "43002",
            "Classification": "U",
            "LaunchYear": "17",
            "LaunchNumber": "069",
            "PieceOfLaunch": "B",
            "EpochYear": "24",
            "EpochDay": 341.71195712,
            "FirstDerivativeMeanMotion": 0.0,
            "SecondDerivativeMeanMotion": "00000+0",
            "BSTAR": "00000+0",
            "SetNumber": "999",
            "Inclination": 56.2052,
            "RAAN": 81.5594,
            "Eccentricity": 0.0006065,
            "ArgumentOfPerigee": 324.7343,
            "MeanAnomaly": 35.2335,
            "MeanMotion": 1.86230815,
            "RevolutionNumber": "4821"
        },
        {
            "Name": "BEIDOU-3 M7 (C27)",
            "Line1": "1 43107U 18003A   24341.45946657 -.00000048  00000+0  00000+0 0  9998",
            "Line2": "2 43107  54.8077 321.6844 0002515  57.4989 302.5288  1.86232288 46975",
            "SatelliteNumber": "43107",
            "Classification": "U",
            "LaunchYear": "18",
            "LaunchNumber": "003",
            "PieceOfLaunch": "A",
            "EpochYear": "24",
            "EpochDay": 341.45946657,
            "FirstDerivativeMeanMotion": -4.8e-07,
            "SecondDerivativeMeanMotion": "00000+0",
            "BSTAR": "00000+0",
            "SetNumber": "999",
            "Inclination": 54.8077,
            "RAAN": 321.6844,
            "Eccentricity": 0.0002515,
            "ArgumentOfPerigee": 57.4989,
            "MeanAnomaly": 302.5288,
            "MeanMotion": 1.86232288,
            "RevolutionNumber": "4697"
        }
    ]
}